[{"OBJECT_NAME":"PROBA-1","OBJECT_ID":"2001-049B","EPOCH":"2026-03-09T22:57:25.772256","MEAN_MOTION":15.07031721,"ECCENTRICITY":0.00568356,"INCLINATION":97.9638,"RA_OF_ASC_NODE":74.0417,"ARG_OF_PERICENTER":98.1776,"MEAN_ANOMALY":262.5903,"EPHEMERIS_TYPE":0,"CLASSIFICATION_TYPE":"U","NORAD_CAT_ID":26958,"ELEMENT_SET_NO":999,"REV_AT_EPOCH":32867,"BSTAR":0.00028513173,"MEAN_MOTION_DOT":4.362e-5,"MEAN_MOTION_DDOT":0},{"OBJECT_NAME":"STARLINK-5714","OBJECT_ID":"2023-020AX","EPOCH":"2026-03-09T22:00:01.999584","MEAN_MOTION":15.13728186,"ECCENTRICITY":1.948e-5,"INCLINATION":43.0001,"RA_OF_ASC_NODE":337.0036,"ARG_OF_PERICENTER":327.0122,"MEAN_ANOMALY":187.1877,"EPHEMERIS_TYPE":0,"CLASSIFICATION_TYPE":"U","NORAD_CAT_ID":55614,"ELEMENT_SET_NO":999,"REV_AT_EPOCH":577,"BSTAR":0.0026586942,"MEAN_MOTION_DOT":0.00048866,"MEAN_MOTION_DDOT":0}]
